[{"OBJECT_NAME":"STARLINK-33752","OBJECT_ID":"2025-076M","EPOCH":"2026-03-09T09:25:21.960192","MEAN_MOTION":15.27551813,"ECCENTRICITY":7.772e-5,"INCLINATION":42.998,"RA_OF_ASC_NODE":323.4909,"ARG_OF_PERICENTER":69.1692,"MEAN_ANOMALY":290.9243,"EPHEMERIS_TYPE":0,"CLASSIFICATION_TYPE":"U","NORAD_CAT_ID":63580,"ELEMENT_SET_NO":999,"REV_AT_EPOCH":5178,"BSTAR":0.0016645556,"MEAN_MOTION_DOT":0.00045788,"MEAN_MOTION_DDOT":0},{"OBJECT_NAME":"OBJECT F","OBJECT_ID":"2021-022F","EPOCH":"2026-03-09T23:37:37.165152","MEAN_MOTION":15.31317672,"ECCENTRICITY":0.00120882,"INCLINATION":97.3982,"RA_OF_ASC_NODE":329.8375,"ARG_OF_PERICENTER":85.9268,"MEAN_ANOMALY":274.3355,"EPHEMERIS_TYPE":0,"CLASSIFICATION_TYPE":"U","NORAD_CAT_ID":47937,"ELEMENT_SET_NO":999,"REV_AT_EPOCH":27452,"BSTAR":0.00038690553,"MEAN_MOTION_DOT":0.00011656,"MEAN_MOTION_DDOT":0}]
